IRIDIUM 63              
1 25286U 98021B   25072.67843305  .00000734  00000+0  24395-3 0  9994
2 25286  86.3966 122.2129 0002205  97.1247 263.0201 14.36417795410131
IRIDIUM 69              
1 25319U 98026A   25072.70553314  .00000978  00000+0  29945-3 0  9994
2 25319  86.3991 135.7737 0002443  36.8281 323.3086 14.40813862409311
IRIDIUM 71              
1 25320U 98026B   25073.21146483  .00000984  00000+0  29999-3 0  9994
2 25320  86.3977 130.2704 0003956  68.1363 292.0257 14.41023632410166
IRIDIUM 73              
1 25344U 98032C   25073.07340723  .00001268  00000+0  31240-3 0  9992
2 25344  86.4352  87.2226 0002014  75.3827 284.7601 14.51495266417063
IRIDIUM 82              
1 25467U 98051A   25073.23003375  .00041152  00000+0  13941-2 0  9999
2 25467  86.3748 156.2129 0093659 295.7670  63.3933 15.26199277409443
